[{"OBJECT_NAME":"ONEWEB-0107","OBJECT_ID":"2021-025G","EPOCH":"2026-03-09T18:27:24.212736","MEAN_MOTION":13.13468974,"ECCENTRICITY":0.00019707,"INCLINATION":87.9046,"RA_OF_ASC_NODE":339.9805,"ARG_OF_PERICENTER":75.9118,"MEAN_ANOMALY":284.223,"EPHEMERIS_TYPE":0,"CLASSIFICATION_TYPE":"U","NORAD_CAT_ID":48048,"ELEMENT_SET_NO":999,"REV_AT_EPOCH":24047,"BSTAR":-0.00050851918,"MEAN_MOTION_DOT":-1.73e-6,"MEAN_MOTION_DDOT":0},{"OBJECT_NAME":"SL-14 DEB","OBJECT_ID":"1991-056DA","EPOCH":"2026-03-09T09:03:06.401088","MEAN_MOTION":13.12015587,"ECCENTRICITY":0.00291996,"INCLINATION":82.5592,"RA_OF_ASC_NODE":225.6095,"ARG_OF_PERICENTER":185.5539,"MEAN_ANOMALY":174.5261,"EPHEMERIS_TYPE":0,"CLASSIFICATION_TYPE":"U","NORAD_CAT_ID":46465,"ELEMENT_SET_NO":999,"REV_AT_EPOCH":26789,"BSTAR":-0.0011030415,"MEAN_MOTION_DOT":-3.83e-6,"MEAN_MOTION_DDOT":0}]
